TRANSIT 16 [?]          
1 02807U 67048A   22204.55230885  .00000087  00000+0  11887-3 0  9990
2 02807  89.6523  35.2477 0022322  95.7665 318.5878 13.50317002715644
TRANSIT 17 [?]          
1 02965U 67092A   22204.37776029  .00000096  00000+0  12679-3 0  9999
2 02965  89.2414 120.6818 0045762 230.0717 256.7147 13.53029454703493
TRANSIT 18 [?]          
1 03133U 68012A   22204.45441149  .00000071  00000+0  93255-4 0  9994
2 03133  90.0060 271.6094 0076170 155.5667 216.9335 13.51156281401953
NNSS 19 [?]             
1 04507U 70067A   22204.55914599  .00000097  00000+0  12712-3 0  9994
2 04507  89.9204 239.0619 0170199 279.6992  78.4972 13.50830461555037
NNSS O-20 [?]           
1 06909U 73081A   22204.47055706  .00000126  00000+0  11920-3 0  9991
2 06909  89.8193 276.7764 0156333 188.2996 171.5578 13.70684348633940
TRANSAT [?]             
1 10457U 77106A   22204.29920799  .00000055  00000+0  71436-4 0  9999
2 10457  89.6843 121.3659 0025545 159.0521 320.2619 13.48681563200491
NOVA I [?]              
1 12458U 81044A   22204.47652753  .00000063  00000+0  12815-3 0  9994
2 12458  89.8896 107.2926 0012601 281.8188 252.0221 13.23065913988106
NOVA 3 [?]              
1 15362U 84110A   22204.56457770  .00000050  00000+0  98568-4 0  9996
2 15362  90.0965  67.3254 0032863 140.0860 277.3300 13.22835085823288
OSCAR 30 [?]            
1 15935U 85066A   22204.57896333  .00000042  00000+0  62715-4 0  9992
2 15935  90.1766  78.5500 0168343 337.2279  81.2403 13.35758504799225
OSCAR 24 [?]            
1 15936U 85066B   22204.58243774  .00000051  00000+0  78030-4 0  9996
2 15936  90.1712  70.5152 0169027 342.9232  72.3534 13.35618890801148
POLAR BEAR [?]          
1 17070U 86088A   22204.53193022  .00000080  00000+0  71707-4 0  9993
2 17070  89.5616 235.9511 0036964 253.8261 220.1700 13.74872172789630
OSCAR 27 [?]            
1 18361U 87080A   22204.53425197  .00000088  00000+0  13078-3 0  9995
2 18361  90.3283  35.4338 0104700 169.1254 191.2193 13.44566697709162
OSCAR 29 [?]            
1 18362U 87080B   22204.51606444  .00000100  00000+0  15233-3 0  9990
2 18362  90.3294  35.7641 0105680 189.5559 224.1203 13.44152373708740
OSCAR 23 [?]            
1 19070U 88033A   22204.42702716  .00000037  00000+0  58186-4 0  9999
2 19070  90.3338 337.9072 0190527  24.2350  37.2170 13.27523801658221
OSCAR 32 [?]            
1 19071U 88033B   22204.41441944  .00000019  00000+0  22533-4 0  9999
2 19071  90.3340 337.9931 0188409  12.2280  45.7442 13.27703555658327
NOVA 11 [?]             
1 19223U 88052A   22204.55273299  .00000064  00000+0  13227-3 0  9999
2 19223  89.9740  80.7922 0030230 182.6281 239.6260 13.22746634645786
OSCAR 25 [?]            
1 19419U 88074A   22204.49963847  .00000086  00000+0  13184-3 0  9994
2 19419  90.0031  17.9037 0096483 177.0311 237.7882 13.42297723660274
OSCAR 31 [?]            
1 19420U 88074B   22204.51569097  .00000091  00000+0  14073-3 0  9992
2 19420  90.0041  18.0834 0094856 171.1379 254.2409 13.42306507660387
